{
  "type": "FeatureCollection",
  "features": [
    {
      "type": "Feature",
      "properties": {
        "norad_id": 34615,
        "name": "COSMOS 2251 DEB",
        "group": "cosmos-2251-debris",
        "lat": -73.02346887393298,
        "lon": 179.10046140627412,
        "alt_km": 951.7141721615335,
        "timestamp": "2025-12-15T20:48:54.279152+00:00",
        "meta_object_name": "COSMOS 2251 DEB",
        "meta_object_id": "1993-036WL",
        "meta_epoch": "2025-12-14T20:36:14.565888",
        "meta_mean_motion": 13.52203212,
        "meta_eccentricity": 0.0401035,
        "meta_inclination": 74.0048,
        "meta_ra_of_asc_node": 290.7428,
        "meta_arg_of_pericenter": 197.5295,
        "meta_mean_anomaly": 193.5798,
        "meta_ephemeris_type": 0,
        "meta_classification_type": "U",
        "meta_norad_cat_id": 34615,
        "meta_element_set_no": 999,
        "meta_rev_at_epoch": 82844,
        "meta_bstar": 0.00010136303,
        "meta_mean_motion_dot": 8.9e-07,
        "meta_mean_motion_ddot": 0,
        "tle_line1": "1 34615U 93036WL  25348.85850192  .00000089  00000+0  10136-3 0  9990",
        "tle_line2": "2 34615  74.0048 290.7428 0401035 197.5295 193.5798 13.52203212828446"
      },
      "geometry": {
        "type": "Point",
        "coordinates": [
          179.10046140627412,
          -73.02346887393298
        ]
      }
    },
    {
      "type": "Feature",
      "properties": {
        "norad_id": 34619,
        "name": "COSMOS 2251 DEB",
        "group": "cosmos-2251-debris",
        "lat": -5.798232574616083,
        "lon": -167.73504104415446,
        "alt_km": 653.892867274697,
        "timestamp": "2025-12-15T20:48:54.279162+00:00",
        "meta_object_name": "COSMOS 2251 DEB",
        "meta_object_id": "1993-036WQ",
        "meta_epoch": "2025-12-14T20:15:10.951200",
        "meta_mean_motion": 14.6465083,
        "meta_eccentricity": 0.00947336,
        "meta_inclination": 74.0432,
        "meta_ra_of_asc_node": 195.8959,
        "meta_arg_of_pericenter": 290.2632,
        "meta_mean_anomaly": 68.8371,
        "meta_ephemeris_type": 0,
        "meta_classification_type": "U",
        "meta_norad_cat_id": 34619,
        "meta_element_set_no": 999,
        "meta_rev_at_epoch": 89329,
        "meta_bstar": 0.00024085496,
        "meta_mean_motion_dot": 1.333e-05,
        "meta_mean_motion_ddot": 0,
        "tle_line1": "1 34619U 93036WQ  25348.84387675  .00001333  00000+0  24085-3 0  9995",
        "tle_line2": "2 34619  74.0432 195.8959 0094733 290.2632  68.8371 14.64650830893292"
      },
      "geometry": {
        "type": "Point",
        "coordinates": [
          -167.73504104415446,
          -5.798232574616083
        ]
      }
    },
    {
      "type": "Feature",
      "properties": {
        "norad_id": 34620,
        "name": "COSMOS 2251 DEB",
        "group": "cosmos-2251-debris",
        "lat": 53.37883135905229,
        "lon": -123.69920376890886,
        "alt_km": 778.8092954701297,
        "timestamp": "2025-12-15T20:48:54.279171+00:00",
        "meta_object_name": "COSMOS 2251 DEB",
        "meta_object_id": "1993-036WR",
        "meta_epoch": "2025-12-14T16:23:09.096288",
        "meta_mean_motion": 14.49141443,
        "meta_eccentricity": 0.00804859,
        "meta_inclination": 74.0516,
        "meta_ra_of_asc_node": 215.8914,
        "meta_arg_of_pericenter": 251.878,
        "meta_mean_anomaly": 107.3603,
        "meta_ephemeris_type": 0,
        "meta_classification_type": "U",
        "meta_norad_cat_id": 34620,
        "meta_element_set_no": 999,
        "meta_rev_at_epoch": 86855,
        "meta_bstar": 0.001634528,
        "meta_mean_motion_dot": 6.455e-05,
        "meta_mean_motion_ddot": 0,
        "tle_line1": "1 34620U 93036WR  25348.68274417  .00006455  00000+0  16345-2 0  9997",
        "tle_line2": "2 34620  74.0516 215.8914 0080485 251.8780 107.3603 14.49141443868553"
      },
      "geometry": {
        "type": "Point",
        "coordinates": [
          -123.69920376890886,
          53.37883135905229
        ]
      }
    },
    {
      "type": "Feature",
      "properties": {
        "norad_id": 34622,
        "name": "COSMOS 2251 DEB",
        "group": "cosmos-2251-debris",
        "lat": 64.29549243868021,
        "lon": 84.92905320295215,
        "alt_km": 807.3921900800051,
        "timestamp": "2025-12-15T20:48:54.279181+00:00",
        "meta_object_name": "COSMOS 2251 DEB",
        "meta_object_id": "1993-036WT",
        "meta_epoch": "2025-12-14T14:43:38.477856",
        "meta_mean_motion": 14.22054977,
        "meta_eccentricity": 0.01044702,
        "meta_inclination": 74.042,
        "meta_ra_of_asc_node": 303.6491,
        "meta_arg_of_pericenter": 25.6613,
        "meta_mean_anomaly": 148.0968,
        "meta_ephemeris_type": 0,
        "meta_classification_type": "U",
        "meta_norad_cat_id": 34622,
        "meta_element_set_no": 999,
        "meta_rev_at_epoch": 86486,
        "meta_bstar": 0.00099843213,
        "meta_mean_motion_dot": 2.31e-05,
        "meta_mean_motion_ddot": 0,
        "tle_line1": "1 34622U 93036WT  25348.61363979  .00002310  00000+0  99843-3 0  9995",
        "tle_line2": "2 34622  74.0420 303.6491 0104470  25.6613 148.0968 14.22054977864860"
      },
      "geometry": {
        "type": "Point",
        "coordinates": [
          84.92905320295215,
          64.29549243868021
        ]
      }
    },
    {
      "type": "Feature",
      "properties": {
        "norad_id": 34626,
        "name": "COSMOS 2251 DEB",
        "group": "cosmos-2251-debris",
        "lat": 39.499377611641684,
        "lon": 124.17693267323047,
        "alt_km": 651.5715828679795,
        "timestamp": "2025-12-15T20:48:54.279191+00:00",
        "meta_object_name": "COSMOS 2251 DEB",
        "meta_object_id": "1993-036WX",
        "meta_epoch": "2025-12-14T08:59:27.929184",
        "meta_mean_motion": 14.7222473,
        "meta_eccentricity": 0.00266303,
        "meta_inclination": 74.0481,
        "meta_ra_of_asc_node": 320.7153,
        "meta_arg_of_pericenter": 48.4691,
        "meta_mean_anomaly": 101.8121,
        "meta_ephemeris_type": 0,
        "meta_classification_type": "U",
        "meta_norad_cat_id": 34626,
        "meta_element_set_no": 999,
        "meta_rev_at_epoch": 89168,
        "meta_bstar": 0.001180695,
        "meta_mean_motion_dot": 7.468e-05,
        "meta_mean_motion_ddot": 0,
        "tle_line1": "1 34626U 93036WX  25348.37462881  .00007468  00000+0  11807-2 0  9996",
        "tle_line2": "2 34626  74.0481 320.7153 0026630  48.4691 101.8121 14.72224730891685"
      },
      "geometry": {
        "type": "Point",
        "coordinates": [
          124.17693267323047,
          39.499377611641684
        ]
      }
    },
    {
      "type": "Feature",
      "properties": {
        "norad_id": 34634,
        "name": "COSMOS 2251 DEB",
        "group": "cosmos-2251-debris",
        "lat": 57.965542284085124,
        "lon": -178.1388686931222,
        "alt_km": 671.480256245567,
        "timestamp": "2025-12-15T20:48:54.279205+00:00",
        "meta_object_name": "COSMOS 2251 DEB",
        "meta_object_id": "1993-036XF",
        "meta_epoch": "2025-12-14T13:37:23.816064",
        "meta_mean_motion": 14.55665206,
        "meta_eccentricity": 0.00440396,
        "meta_inclination": 74.0531,
        "meta_ra_of_asc_node": 31.5124,
        "meta_arg_of_pericenter": 138.3842,
        "meta_mean_anomaly": 11.9306,
        "meta_ephemeris_type": 0,
        "meta_classification_type": "U",
        "meta_norad_cat_id": 34634,
        "meta_element_set_no": 999,
        "meta_rev_at_epoch": 88808,
        "meta_bstar": 0.00033463827,
        "meta_mean_motion_dot": 1.452e-05,
        "meta_mean_motion_ddot": 0,
        "tle_line1": "1 34634U 93036XF  25348.56763676  .00001452  00000+0  33464-3 0  9993",
        "tle_line2": "2 34634  74.0531  31.5124 0044039 138.3842  11.9306 14.55665206888089"
      },
      "geometry": {
        "type": "Point",
        "coordinates": [
          -178.1388686931222,
          57.965542284085124
        ]
      }
    },
    {
      "type": "Feature",
      "properties": {
        "norad_id": 34635,
        "name": "COSMOS 2251 DEB",
        "group": "cosmos-2251-debris",
        "lat": 54.569415004326544,
        "lon": -139.03662958150838,
        "alt_km": 641.29818897739,
        "timestamp": "2025-12-15T20:48:54.279215+00:00",
        "meta_object_name": "COSMOS 2251 DEB",
        "meta_object_id": "1993-036XG",
        "meta_epoch": "2025-12-14T15:23:00.947616",
        "meta_mean_motion": 14.6830143,
        "meta_eccentricity": 0.00283454,
        "meta_inclination": 74.0458,
        "meta_ra_of_asc_node": 67.0408,
        "meta_arg_of_pericenter": 135.1703,
        "meta_mean_anomaly": 347.4055,
        "meta_ephemeris_type": 0,
        "meta_classification_type": "U",
        "meta_norad_cat_id": 34635,
        "meta_element_set_no": 999,
        "meta_rev_at_epoch": 73247,
        "meta_bstar": 0.00094208025,
        "meta_mean_motion_dot": 5.442e-05,
        "meta_mean_motion_ddot": 0,
        "tle_line1": "1 34635U 93036XG  25348.64098319  .00005442  00000+0  94208-3 0  9994",
        "tle_line2": "2 34635  74.0458  67.0408 0028345 135.1703 347.4055 14.68301430732479"
      },
      "geometry": {
        "type": "Point",
        "coordinates": [
          -139.03662958150838,
          54.569415004326544
        ]
      }
    }
  ]
}